{
  "type": "FeatureCollection",
  "features": [
    {
      "type": "Feature",
      "properties": {
        "norad_id": 31825,
        "name": "FENGYUN 1C DEB",
        "group": "fengyun-1c-debris",
        "lat": -37.4832278322889,
        "lon": 3.9121549758476113,
        "alt_km": 711.8340360678958,
        "timestamp": "2025-12-23T22:42:33.268815+00:00",
        "meta_object_name": "FENGYUN 1C DEB",
        "meta_object_id": "1999-025CHP",
        "meta_epoch": "2025-12-23T05:59:31.431840",
        "meta_mean_motion": 14.21680969,
        "meta_eccentricity": 0.01650958,
        "meta_inclination": 98.5908,
        "meta_ra_of_asc_node": 356.5768,
        "meta_arg_of_pericenter": 307.7444,
        "meta_mean_anomaly": 50.887,
        "meta_ephemeris_type": 0,
        "meta_classification_type": "U",
        "meta_norad_cat_id": 31825,
        "meta_element_set_no": 999,
        "meta_rev_at_epoch": 95771,
        "meta_bstar": 0.0006003087,
        "meta_mean_motion_dot": 1.469e-05,
        "meta_mean_motion_ddot": 0,
        "tle_line1": "1 31825U 99025CHP 25357.24966935  .00001469  00000+0  60031-3 0  9992",
        "tle_line2": "2 31825  98.5908 356.5768 0165095 307.7444  50.8870 14.21680969957718"
      },
      "geometry": {
        "type": "Point",
        "coordinates": [
          3.9121549758476113,
          -37.4832278322889
        ]
      }
    },
    {
      "type": "Feature",
      "properties": {
        "norad_id": 31826,
        "name": "FENGYUN 1C DEB",
        "group": "fengyun-1c-debris",
        "lat": 81.26053212057846,
        "lon": -92.13554875999517,
        "alt_km": 786.2551928151706,
        "timestamp": "2025-12-23T22:42:33.268827+00:00",
        "meta_object_name": "FENGYUN 1C DEB",
        "meta_object_id": "1999-025CHQ",
        "meta_epoch": "2025-12-19T10:43:46.840224",
        "meta_mean_motion": 14.19284767,
        "meta_eccentricity": 0.0124248,
        "meta_inclination": 98.6261,
        "meta_ra_of_asc_node": 344.3988,
        "meta_arg_of_pericenter": 169.9171,
        "meta_mean_anomaly": 344.9058,
        "meta_ephemeris_type": 0,
        "meta_classification_type": "U",
        "meta_norad_cat_id": 31826,
        "meta_element_set_no": 999,
        "meta_rev_at_epoch": 95909,
        "meta_bstar": 0.00024759,
        "meta_mean_motion_dot": 5.19e-06,
        "meta_mean_motion_ddot": 0,
        "tle_line1": "1 31826U 99025CHQ 25353.44706991  .00000519  00000+0  24759-3 0  9997",
        "tle_line2": "2 31826  98.6261 344.3988 0124248 169.9171 344.9058 14.19284767959092"
      },
      "geometry": {
        "type": "Point",
        "coordinates": [
          -92.13554875999517,
          81.26053212057846
        ]
      }
    },
    {
      "type": "Feature",
      "properties": {
        "norad_id": 31829,
        "name": "FENGYUN 1C DEB",
        "group": "fengyun-1c-debris",
        "lat": 52.552715893781425,
        "lon": -1.0843649679006968,
        "alt_km": 805.4571916293144,
        "timestamp": "2025-12-23T22:42:33.268838+00:00",
        "meta_object_name": "FENGYUN 1C DEB",
        "meta_object_id": "1999-025CHT",
        "meta_epoch": "2025-12-22T05:26:53.065248",
        "meta_mean_motion": 13.88693566,
        "meta_eccentricity": 0.01693041,
        "meta_inclination": 98.8356,
        "meta_ra_of_asc_node": 165.5678,
        "meta_arg_of_pericenter": 138.6602,
        "meta_mean_anomaly": 37.8772,
        "meta_ephemeris_type": 0,
        "meta_classification_type": "U",
        "meta_norad_cat_id": 31829,
        "meta_element_set_no": 999,
        "meta_rev_at_epoch": 94279,
        "meta_bstar": 0.00037885274,
        "meta_mean_motion_dot": 4.72e-06,
        "meta_mean_motion_ddot": 0,
        "tle_line1": "1 31829U 99025CHT 25356.22700307  .00000472  00000+0  37885-3 0  9996",
        "tle_line2": "2 31829  98.8356 165.5678 0169304 138.6602  37.8772 13.88693566942791"
      },
      "geometry": {
        "type": "Point",
        "coordinates": [
          -1.0843649679006968,
          52.552715893781425
        ]
      }
    },
    {
      "type": "Feature",
      "properties": {
        "norad_id": 31830,
        "name": "FENGYUN 1C DEB",
        "group": "fengyun-1c-debris",
        "lat": -73.34535680338726,
        "lon": 136.00336718167662,
        "alt_km": 824.3088340896038,
        "timestamp": "2025-12-23T22:42:33.268848+00:00",
        "meta_object_name": "FENGYUN 1C DEB",
        "meta_object_id": "1999-025CHU",
        "meta_epoch": "2025-12-23T05:51:03.349728",
        "meta_mean_motion": 13.83464467,
        "meta_eccentricity": 0.01835717,
        "meta_inclination": 99.1631,
        "meta_ra_of_asc_node": 102.6668,
        "meta_arg_of_pericenter": 286.2203,
        "meta_mean_anomaly": 101.2306,
        "meta_ephemeris_type": 0,
        "meta_classification_type": "U",
        "meta_norad_cat_id": 31830,
        "meta_element_set_no": 999,
        "meta_rev_at_epoch": 92885,
        "meta_bstar": 0.0019759881,
        "meta_mean_motion_dot": 2.434e-05,
        "meta_mean_motion_ddot": 0,
        "tle_line1": "1 31830U 99025CHU 25357.24378877  .00002434  00000+0  19760-2 0  9995",
        "tle_line2": "2 31830  99.1631 102.6668 0183571 286.2203 101.2306 13.83464467928854"
      },
      "geometry": {
        "type": "Point",
        "coordinates": [
          136.00336718167662,
          -73.34535680338726
        ]
      }
    },
    {
      "type": "Feature",
      "properties": {
        "norad_id": 31834,
        "name": "FENGYUN 1C DEB",
        "group": "fengyun-1c-debris",
        "lat": 32.952027922579305,
        "lon": 42.72980367706534,
        "alt_km": 900.5357485414097,
        "timestamp": "2025-12-23T22:42:33.268858+00:00",
        "meta_object_name": "FENGYUN 1C DEB",
        "meta_object_id": "1999-025CHY",
        "meta_epoch": "2025-12-20T20:26:22.234272",
        "meta_mean_motion": 14.03159289,
        "meta_eccentricity": 0.01625181,
        "meta_inclination": 98.367,
        "meta_ra_of_asc_node": 214.4081,
        "meta_arg_of_pericenter": 54.7692,
        "meta_mean_anomaly": 306.8567,
        "meta_ephemeris_type": 0,
        "meta_classification_type": "U",
        "meta_norad_cat_id": 31834,
        "meta_element_set_no": 999,
        "meta_rev_at_epoch": 63824,
        "meta_bstar": 0.00023339915,
        "meta_mean_motion_dot": 3.7e-06,
        "meta_mean_motion_ddot": 0,
        "tle_line1": "1 31834U 99025CHY 25354.85164623  .00000370  00000+0  23340-3 0  9992",
        "tle_line2": "2 31834  98.3670 214.4081 0162518  54.7692 306.8567 14.03159289638240"
      },
      "geometry": {
        "type": "Point",
        "coordinates": [
          42.72980367706534,
          32.952027922579305
        ]
      }
    },
    {
      "type": "Feature",
      "properties": {
        "norad_id": 31837,
        "name": "FENGYUN 1C DEB",
        "group": "fengyun-1c-debris",
        "lat": 0.46245072008190935,
        "lon": 73.56103368181161,
        "alt_km": 563.0467256052325,
        "timestamp": "2025-12-23T22:42:33.268868+00:00",
        "meta_object_name": "FENGYUN 1C DEB",
        "meta_object_id": "1999-025CJB",
        "meta_epoch": "2025-12-18T11:29:15.674496",
        "meta_mean_motion": 14.82330224,
        "meta_eccentricity": 0.00931656,
        "meta_inclination": 98.1015,
        "meta_ra_of_asc_node": 68.0911,
        "meta_arg_of_pericenter": 359.156,
        "meta_mean_anomaly": 0.9481,
        "meta_ephemeris_type": 0,
        "meta_classification_type": "U",
        "meta_norad_cat_id": 31837,
        "meta_element_set_no": 999,
        "meta_rev_at_epoch": 98444,
        "meta_bstar": 0.00086076485,
        "meta_mean_motion_dot": 7.369e-05,
        "meta_mean_motion_ddot": 0,
        "tle_line1": "1 31837U 99025CJB 25352.47865364  .00007369  00000+0  86076-3 0  9991",
        "tle_line2": "2 31837  98.1015  68.0911 0093165 359.1560   0.9481 14.82330224984446"
      },
      "geometry": {
        "type": "Point",
        "coordinates": [
          73.56103368181161,
          0.46245072008190935
        ]
      }
    },
    {
      "type": "Feature",
      "properties": {
        "norad_id": 31838,
        "name": "FENGYUN 1C DEB",
        "group": "fengyun-1c-debris",
        "lat": -58.88368955203821,
        "lon": 63.218251313762885,
        "alt_km": 843.6017668024788,
        "timestamp": "2025-12-23T22:42:33.268878+00:00",
        "meta_object_name": "FENGYUN 1C DEB",
        "meta_object_id": "1999-025CJC",
        "meta_epoch": "2025-12-17T08:26:31.079040",
        "meta_mean_motion": 14.21147066,
        "meta_eccentricity": 0.00383301,
        "meta_inclination": 98.7181,
        "meta_ra_of_asc_node": 41.9841,
        "meta_arg_of_pericenter": 82.4051,
        "meta_mean_anomaly": 338.6922,
        "meta_ephemeris_type": 0,
        "meta_classification_type": "U",
        "meta_norad_cat_id": 31838,
        "meta_element_set_no": 999,
        "meta_rev_at_epoch": 64642,
        "meta_bstar": 0.00054487511,
        "meta_mean_motion_dot": 1.15e-05,
        "meta_mean_motion_ddot": 0,
        "tle_line1": "1 31838U 99025CJC 25351.35174860  .00001150  00000+0  54488-3 0  9996",
        "tle_line2": "2 31838  98.7181  41.9841 0038330  82.4051 338.6922 14.21147066646420"
      },
      "geometry": {
        "type": "Point",
        "coordinates": [
          63.218251313762885,
          -58.88368955203821
        ]
      }
    }
  ]
}